[{"OBJECT_NAME":"ONEWEB-0448","OBJECT_ID":"2022-012V","EPOCH":"2026-03-09T21:51:43.015392","MEAN_MOTION":13.10373074,"ECCENTRICITY":0.00018227,"INCLINATION":87.8772,"RA_OF_ASC_NODE":56.0502,"ARG_OF_PERICENTER":88.1715,"MEAN_ANOMALY":271.9621,"EPHEMERIS_TYPE":0,"CLASSIFICATION_TYPE":"U","NORAD_CAT_ID":51641,"ELEMENT_SET_NO":999,"REV_AT_EPOCH":19629,"BSTAR":-0.002076271,"MEAN_MOTION_DOT":-7.12e-6,"MEAN_MOTION_DDOT":0},{"OBJECT_NAME":"COSMOS 2251 DEB","OBJECT_ID":"1993-036FZ","EPOCH":"2026-03-09T15:22:18.983136","MEAN_MOTION":13.50149035,"ECCENTRICITY":0.0404736,"INCLINATION":73.9282,"RA_OF_ASC_NODE":146.4741,"ARG_OF_PERICENTER":150.9677,"MEAN_ANOMALY":335.355,"EPHEMERIS_TYPE":0,"CLASSIFICATION_TYPE":"U","NORAD_CAT_ID":33990,"ELEMENT_SET_NO":999,"REV_AT_EPOCH":83902,"BSTAR":0.00076,"MEAN_MOTION_DOT":7.87e-6,"MEAN_MOTION_DDOT":0}]
